#aV2011  6  3  0  0   .00000000      96 DD+AD WGS84 FIT  NGA
## 1638 432000.00000000   900.00000000 55715  .0000000000000
+   32     1  2  3  4  5  6  7  8  9 10 11 12 13 14 15 16 17
+         18 19 20 21 22 23 24 25 26 27 28 29 30 31 32  0  0
+          0  0  0  0  0  0  0  0  0  0  0  0  0  0  0  0  0
+          0  0  0  0  0  0  0  0  0  0  0  0  0  0  0  0  0
+          0  0  0  0  0  0  0  0  0  0  0  0  0  0  0  0  0
++         0  0  0  0  0  0  0  0  0  0  0  0  0  0  0  0  0
++         0  0  0  0  0  0  0  0  0  0  0  0  0  0  0  0  0
++         0  0  0  0  0  0  0  0  0  0  0  0  0  0  0  0  0
++         0  0  0  0  0  0  0  0  0  0  0  0  0  0  0  0  0
++         0  0  0  0  0  0  0  0  0  0  0  0  0  0  0  0  0
%c cc cc ccc ccc cccc cccc cccc cccc ccccc ccccc ccccc ccccc
%c cc cc ccc ccc cccc cccc cccc cccc ccccc ccccc ccccc ccccc
%f  0.0000000  0.000000000  0.00000000000  0.000000000000000
%f  0.0000000  0.000000000  0.00000000000  0.000000000000000
%i    0    0    0    0      0      0      0      0         0
%i    0    0    0    0      0      0      0      0         0
/*      NGA, ST. LOUIS,MO.                                  
/*   EPHEMERIS COMPUTED FROM  3 DAYS OF DATA                
/* CCCCCCCCCCCCCCCCCCCCCCCCCCCCCCCCCCCCCCCCCCCCCCCCCCCCCCCCC
/* CCCCCCCCCCCCCCCCCCCCCCCCCCCCCCCCCCCCCCCCCCCCCCCCCCCCCCCCC
*  2011  6  3 21 15   .00000000                                                 
P  1   7180.983852  19145.244362 -17336.113827     29.551473                    
V  1 -18862.219461 -10071.554043 -19296.751759      1.916094                    
P  2 -21384.398046  13941.735172   6393.846296    339.869336                    
V  2  -9006.693135   -335.376911 -30122.399044       .019676                    
P  3  11029.485341 -19012.584758  14264.132318    723.793950                    
V  3   2790.019897  19104.847661  22963.500281       .050710                    
P  4 -25505.760871   4843.328981  -6620.191950    134.032468                    
V  4   6400.135040  -5809.989760 -29509.008744       .107068                    
P  5 -12089.393121   9850.307955  21493.794456   -169.484479                    
V  5 -21249.522735 -17206.518584  -3960.728839      -.056838                    
P  6  14064.519849 -14633.570366  17168.027775    284.898354                    
V  6    239.169286  21783.920864  18774.131878      -.862248                    
P  7 -14990.730732  -8863.617067  20118.115849     13.148305                    
V  7  23434.446905  -9940.156489  12872.518891       .012664                    
P  8 -22616.555310  -2761.298496  14130.580327      8.053122                    
V  8  16613.593027  -5958.059313  24933.949175       .000294                    
P  9  -5025.022018  16862.018659 -20452.945358     84.117922                    
V  9 -23060.404846   8832.715767  13312.971240       .023961                    
P 10 -22015.837932  -5250.122562  13976.044142     -2.587870                    
V 10 -12431.172902 -13198.603995 -23800.131758      -.010829                    
P 11   4842.420302 -20275.247454 -16598.993268   -156.458509                    
V 11  18743.660153  -9774.305824  18105.718182      -.032229                    
P 12   6339.598730  19777.750279 -16640.060464       .002261                    
V 12 -17187.503928 -12254.286663 -20915.083049       .026180                    
P 13  -6098.377652 -20169.428078  15981.874404    267.083515                    
V 13   6003.162384 -19685.786571 -22411.478778      -.016112                    
P 14  14506.433033   2223.826996 -21976.296323    153.906477                    
V 14  -5585.826619  27669.500024  -1018.450918       .022575                    
P 15  -4145.852524  26120.167940   1100.866663   -123.835878                    
V 15  -3103.375870  -1809.972252  31575.866123       .023991                    
P 16  12750.113902  -8455.173876  21766.220731   -176.599444                    
V 16  20794.861783  17994.017096  -4897.646878      -.025761                    
P 17 -15010.271392  -2061.618273 -21671.949763    184.083651                    
V 17   4723.129519 -27453.221844   -873.903407      -.000937                    
P 18  20799.384989  16839.361762   -206.928859    140.373509                    
V 18  -1637.396928   3001.433789  30892.842376       .019304                    
P 19   8535.379426 -24653.723089   3813.173754   -147.529035                    
V 19   1952.721140   5489.180405  31439.626263      -.040758                    
P 20  -9527.298047 -20264.962300 -14473.493659     49.673586                    
V 20  16219.870113   8625.921029 -22924.105062       .002091                    
P 21  17596.720508   8200.007826  18792.682703   -148.746153                    
V 21 -20866.191010   9545.396757  15110.129463      -.026121                    
P 22  22710.167000   7961.743448 -11188.176674    147.925733                    
V 22   9160.479336  11660.608038  26373.071617      -.003423                    
P 23     78.811089 -25745.202249   5730.366193    301.795020                    
V 23   4025.483281  -6794.770249 -30931.165711      -.027577                    
P 24   1660.046904 -16301.971206 -20795.000409    395.524363                    
V 24  25571.170706  -7524.347779   8203.036657       .032574                    
P 25  17214.493398  19125.101261  -6661.417012      2.233056                    
V 25  -8225.720240  -3127.056187 -30301.368285       .015890                    
P 26 -12039.711588  20435.895307  10930.499869    -49.709511                    
V 26   1178.772032 -15006.407315  28243.674767      -.114045                    
P 27 -11196.859748  16959.527539 -16264.745394    271.525419                    
V 27 -20817.689696   7320.687040  21447.088841       .037621                    
P 28 -22242.684709 -12032.990092  -8011.772472     42.285550                    
V 28  -6791.401915  -8661.987055  29689.792282       .026741                    
P 29   5852.152748  21873.368753  14002.344358    212.526909                    
V 29  -5296.514067  16942.177929 -24342.028388       .029022                    
P 30  19237.227810  -1442.221961  17855.850633      6.866296                    
V 30  18030.008995  15165.419912 -17764.814099       .047030                    
P 31  25422.193923  -7046.784624  -3757.244052     90.101378                    
V 31  -3923.130794   3683.078421 -31556.234119       .057532                    
P 32   -821.281513 -18851.226885 -18576.016909   -266.467027                    
V 32  18411.952585  15519.202583 -15911.235582      -.071738                    
EOF
